start=new Date('2022-05-22T00:00:00.000Z').valueOf();
sats=[{"CENTER_NAME":"EARTH","MEAN_MOTION_DOT":"0.00021479","MEAN_ELEMENT_THEORY":"SGP4","ELEMENT_SET_NO":"999","MEAN_ANOMALY":"69.3099","SITE":"AFETR","COUNTRY_CODE":"US","INCLINATION":"53.2144","REV_AT_EPOCH":"130","DECAY_DATE":null,"PERIAPSIS":"348.387","MEAN_MOTION_DDOT":"0.0000000000000","OBJECT_TYPE":"PAYLOAD","TLE_LINE2":"2 52478  53.2144 189.5230 0002003  21.4644  69.3099 15.73208830  1308","EPOCH":"2022-05-21T22:00:00.999936","RA_OF_ASC_NODE":"189.5230","BSTAR":"0.00015700000000","EPHEMERIS_TYPE":"0","ARG_OF_PERICENTER":"21.4644","LAUNCH_DATE":"2022-05-06","APOAPSIS":"351.083","MEAN_MOTION":"15.73208830","FILE":"3457577","TLE_LINE1":"1 52478U 22049AD  22141.91667824  .00021479  00000-0  15700-3 0  9995","OBJECT_NAME":"STARLINK-3825","RCS_SIZE":"LARGE","REF_FRAME":"TEME","SEMIMAJOR_AXIS":"6727.870","ECCENTRICITY":"0.00020030","GP_ID":"204195766","NORAD_CAT_ID":"52478","OBJECT_ID":"2022-049AD","TIME_SYSTEM":"UTC","CLASSIFICATION_TYPE":"U","PERIOD":"91.533"},{"SITE":"AFETR","MEAN_ANOMALY":"58.8059","ELEMENT_SET_NO":"999","MEAN_ELEMENT_THEORY":"SGP4","MEAN_MOTION_DOT":"0.00020413","CENTER_NAME":"EARTH","EPOCH":"2022-05-21T22:00:00.999936","RA_OF_ASC_NODE":"189.5199","TLE_LINE2":"2 52479  53.2148 189.5199 0002080  33.7622  58.8059 15.73195584  1304","OBJECT_TYPE":"PAYLOAD","PERIAPSIS":"348.373","MEAN_MOTION_DDOT":"0.0000000000000","REV_AT_EPOCH":"130","DECAY_DATE":null,"COUNTRY_CODE":"US","INCLINATION":"53.2148","RCS_SIZE":"MEDIUM","OBJECT_NAME":"STARLINK-3878","TLE_LINE1":"1 52479U 22049AE  22141.91667824  .00020413  00000-0  14953-3 0  9992","APOAPSIS":"351.172","FILE":"3457577","MEAN_MOTION":"15.73195584","LAUNCH_DATE":"2022-05-06","ARG_OF_PERICENTER":"33.7622","BSTAR":"0.00014953000000","EPHEMERIS_TYPE":"0","CLASSIFICATION_TYPE":"U","PERIOD":"91.533","TIME_SYSTEM":"UTC","NORAD_CAT_ID":"52479","OBJECT_ID":"2022-049AE","GP_ID":"204195985","ECCENTRICITY":"0.00020800","REF_FRAME":"TEME","SEMIMAJOR_AXIS":"6727.908"},{"EPOCH":"2022-05-21T22:00:00.999936","RA_OF_ASC_NODE":"189.5206","TLE_LINE2":"2 52480  53.2143 189.5206 0001969  20.4268  71.4818 15.73220341  1308","OBJECT_TYPE":"PAYLOAD","PERIAPSIS":"348.377","MEAN_MOTION_DDOT":"0.0000000000000","REV_AT_EPOCH":"130","DECAY_DATE":null,"COUNTRY_CODE":"US","INCLINATION":"53.2143","SITE":"AFETR","MEAN_ANOMALY":"71.4818","ELEMENT_SET_NO":"999","MEAN_ELEMENT_THEORY":"SGP4","MEAN_MOTION_DOT":"-0.00004572","CENTER_NAME":"EARTH","PERIOD":"91.532","CLASSIFICATION_TYPE":"U","NORAD_CAT_ID":"52480","OBJECT_ID":"2022-049AF","TIME_SYSTEM":"UTC","GP_ID":"204196264","ECCENTRICITY":"0.00019690","REF_FRAME":"TEME","SEMIMAJOR_AXIS":"6727.837","RCS_SIZE":"MEDIUM","OBJECT_NAME":"STARLINK-3839","TLE_LINE1":"1 52480U 22049AF  22141.91667824 -.00004572  00000-0 -28139-4 0  9996","APOAPSIS":"351.027","FILE":"3457577","MEAN_MOTION":"15.73220341","LAUNCH_DATE":"2022-05-06","ARG_OF_PERICENTER":"20.4268","BSTAR":"-0.00002813900000","EPHEMERIS_TYPE":"0"},{"TIME_SYSTEM":"UTC","NORAD_CAT_ID":"52481","OBJECT_ID":"2022-049AG","PERIOD":"91.533","CLASSIFICATION_TYPE":"U","REF_FRAME":"TEME","SEMIMAJOR_AXIS":"6727.901","ECCENTRICITY":"0.00020820","GP_ID":"204195883","LAUNCH_DATE":"2022-05-06","APOAPSIS":"351.167","MEAN_MOTION":"15.73198029","FILE":"3457577","TLE_LINE1":"1 52481U 22049AG  22141.91667824  .00027953  00000-0  20293-3 0  9995","RCS_SIZE":"MEDIUM","OBJECT_NAME":"STARLINK-3842","BSTAR":"0.00020293000000","EPHEMERIS_TYPE":"0","ARG_OF_PERICENTER":"29.1122","OBJECT_TYPE":"PAYLOAD","TLE_LINE2":"2 52481  53.2148 189.5264 0002082  29.1122  60.2832 15.73198029  1309","EPOCH":"2022-05-21T22:00:00.999936","RA_OF_ASC_NODE":"189.5264","COUNTRY_CODE":"US","INCLINATION":"53.2148","REV_AT_EPOCH":"130","DECAY_DATE":null,"PERIAPSIS":"348.365","MEAN_MOTION_DDOT":"0.0000000000000","ELEMENT_SET_NO":"999","MEAN_ANOMALY":"60.2832","SITE":"AFETR","CENTER_NAME":"EARTH","MEAN_MOTION_DOT":"0.00027953","MEAN_ELEMENT_THEORY":"SGP4"},{"ECCENTRICITY":"0.00019700","REF_FRAME":"TEME","SEMIMAJOR_AXIS":"6728.010","GP_ID":"204196088","CLASSIFICATION_TYPE":"U","PERIOD":"91.536","NORAD_CAT_ID":"52482","OBJECT_ID":"2022-049AH","TIME_SYSTEM":"UTC","ARG_OF_PERICENTER":"31.5583","BSTAR":"0.00037520000000","EPHEMERIS_TYPE":"0","APOAPSIS":"351.200","MEAN_MOTION":"15.73159787","FILE":"3457577","LAUNCH_DATE":"2022-05-06","OBJECT_NAME":"STARLINK-3813","RCS_SIZE":"LARGE","TLE_LINE1":"1 52482U 22049AH  22141.91667824  .00052276  00000-0  37520-3 0  9993","REV_AT_EPOCH":"130","DECAY_DATE":null,"COUNTRY_CODE":"US","INCLINATION":"53.2144","PERIAPSIS":"348.549","MEAN_MOTION_DDOT":"0.0000000000000","OBJECT_TYPE":"PAYLOAD","EPOCH":"2022-05-21T22:00:00.999936","RA_OF_ASC_NODE":"189.5150","TLE_LINE2":"2 52482  53.2144 189.5150 0001970  31.5583  62.9623 15.73159787  1308","MEAN_MOTION_DOT":"0.00052276","CENTER_NAME":"EARTH","MEAN_ELEMENT_THEORY":"SGP4","ELEMENT_SET_NO":"999","SITE":"AFETR","MEAN_ANOMALY":"62.9623"},{"LAUNCH_DATE":"2022-05-06","FILE":"3457577","MEAN_MOTION":"15.73222669","APOAPSIS":"350.986","TLE_LINE1":"1 52483U 22049AJ  22141.91667824  .00005763  00000-0  45413-4 0  9994","RCS_SIZE":"MEDIUM","OBJECT_NAME":"STARLINK-3875","EPHEMERIS_TYPE":"0","BSTAR":"0.00004541300000","ARG_OF_PERICENTER":"25.8362","OBJECT_ID":"2022-049AJ","NORAD_CAT_ID":"52483","TIME_SYSTEM":"UTC","CLASSIFICATION_TYPE":"U","PERIOD":"91.532","SEMIMAJOR_AXIS":"6727.831","REF_FRAME":"TEME","ECCENTRICITY":"0.00019180","GP_ID":"204195664","ELEMENT_SET_NO":"999","MEAN_ANOMALY":"65.5302","SITE":"AFETR","CENTER_NAME":"EARTH","MEAN_MOTION_DOT":"0.00005763","MEAN_ELEMENT_THEORY":"SGP4","OBJECT_TYPE":"PAYLOAD","TLE_LINE2":"2 52483  53.2143 189.5214 0001918  25.8362  65.5302 15.73222669  1305","RA_OF_ASC_NODE":"189.5214","EPOCH":"2022-05-21T22:00:00.999936","INCLINATION":"53.2143","COUNTRY_CODE":"US","DECAY_DATE":null,"REV_AT_EPOCH":"130","MEAN_MOTION_DDOT":"0.0000000000000","PERIAPSIS":"348.405"},{"CLASSIFICATION_TYPE":"U","PERIOD":"91.533","NORAD_CAT_ID":"52484","TIME_SYSTEM":"UTC","OBJECT_ID":"2022-049AK","ECCENTRICITY":"0.00017830","SEMIMAJOR_AXIS":"6727.890","REF_FRAME":"TEME","GP_ID":"204196205","MEAN_MOTION":"15.73201653","FILE":"3457577","APOAPSIS":"350.955","LAUNCH_DATE":"2022-05-06","OBJECT_NAME":"STARLINK-3887","RCS_SIZE":"LARGE","TLE_LINE1":"1 52484U 22049AK  22141.91667824  .00016501  00000-0  12175-3 0  9995","ARG_OF_PERICENTER":"24.0320","EPHEMERIS_TYPE":"0","BSTAR":"0.00012175000000","OBJECT_TYPE":"PAYLOAD","RA_OF_ASC_NODE":"189.5134","EPOCH":"2022-05-21T22:00:00.999936","TLE_LINE2":"2 52484  53.2157 189.5134 0001783  24.0320  71.0953 15.73201653  1301","DECAY_DATE":null,"REV_AT_EPOCH":"130","INCLINATION":"53.2157","COUNTRY_CODE":"US","MEAN_MOTION_DDOT":"0.0000000000000","PERIAPSIS":"348.556","ELEMENT_SET_NO":"999","SITE":"AFETR","MEAN_ANOMALY":"71.0953","MEAN_MOTION_DOT":"0.00016501","CENTER_NAME":"EARTH","MEAN_ELEMENT_THEORY":"SGP4"},{"LAUNCH_DATE":"2022-05-06","APOAPSIS":"350.997","FILE":"3457577","MEAN_MOTION":"15.73217667","TLE_LINE1":"1 52485U 22049AL  22141.91667824 -.00030576  00000-0 -21404-3 0  9991","OBJECT_NAME":"STARLINK-3913","RCS_SIZE":"MEDIUM","BSTAR":"-0.00021404000000","EPHEMERIS_TYPE":"0","ARG_OF_PERICENTER":"19.1026","TIME_SYSTEM":"UTC","NORAD_CAT_ID":"52485","OBJECT_ID":"2022-049AL","CLASSIFICATION_TYPE":"U","PERIOD":"91.532","REF_FRAME":"TEME","SEMIMAJOR_AXIS":"6727.845","ECCENTRICITY":"0.00019130","GP_ID":"204195562","ELEMENT_SET_NO":"999","MEAN_ANOMALY":"74.6974","SITE":"AFETR","CENTER_NAME":"EARTH","MEAN_MOTION_DOT":"-0.00030576","MEAN_ELEMENT_THEORY":"SGP4","OBJECT_TYPE":"PAYLOAD","TLE_LINE2":"2 52485  53.2146 189.5166 0001913  19.1026  74.6974 15.73217667  1302","EPOCH":"2022-05-21T22:00:00.999936","RA_OF_ASC_NODE":"189.5166","COUNTRY_CODE":"US","INCLINATION":"53.2146","REV_AT_EPOCH":"130","DECAY_DATE":null,"PERIAPSIS":"348.423","MEAN_MOTION_DDOT":"0.0000000000000"},{"PERIOD":"91.534","CLASSIFICATION_TYPE":"U","TIME_SYSTEM":"UTC","NORAD_CAT_ID":"52486","OBJECT_ID":"2022-049AM","ECCENTRICITY":"0.00018710","SEMIMAJOR_AXIS":"6727.920","REF_FRAME":"TEME","GP_ID":"204195767","FILE":"3457577","MEAN_MOTION":"15.73191262","APOAPSIS":"351.044","LAUNCH_DATE":"2022-05-06","OBJECT_NAME":"STARLINK-3918","RCS_SIZE":"LARGE","TLE_LINE1":"1 52486U 22049AM  22141.91667824  .00055099  00000-0  39456-3 0  9993","ARG_OF_PERICENTER":"23.6097","EPHEMERIS_TYPE":"0","BSTAR":"0.00039456000000","OBJECT_TYPE":"PAYLOAD","RA_OF_ASC_NODE":"189.5105","EPOCH":"2022-05-21T22:00:00.999936","TLE_LINE2":"2 52486  53.2139 189.5105 0001871  23.6097  72.6773 15.73191262  1306","DECAY_DATE":null,"REV_AT_EPOCH":"130","INCLINATION":"53.2139","COUNTRY_CODE":"US","MEAN_MOTION_DDOT":"0.0000000000000","PERIAPSIS":"348.526","ELEMENT_SET_NO":"999","SITE":"AFETR","MEAN_ANOMALY":"72.6773","MEAN_MOTION_DOT":"0.00055099","CENTER_NAME":"EARTH","MEAN_ELEMENT_THEORY":"SGP4"},{"BSTAR":"0.00012721000000","EPHEMERIS_TYPE":"0","ARG_OF_PERICENTER":"32.5259","LAUNCH_DATE":"2022-05-06","APOAPSIS":"351.074","FILE":"3457577","MEAN_MOTION":"15.73240459","TLE_LINE1":"1 52487U 22049AN  22141.91667824  .00017300  00000-0  12721-3 0  9993","OBJECT_NAME":"STARLINK-3902","RCS_SIZE":"MEDIUM","REF_FRAME":"TEME","SEMIMAJOR_AXIS":"6727.780","ECCENTRICITY":"0.00021240","GP_ID":"204195986","OBJECT_ID":"2022-049AN","NORAD_CAT_ID":"52487","TIME_SYSTEM":"UTC","PERIOD":"91.531","CLASSIFICATION_TYPE":"U","CENTER_NAME":"EARTH","MEAN_MOTION_DOT":"0.00017300","MEAN_ELEMENT_THEORY":"SGP4","ELEMENT_SET_NO":"999","MEAN_ANOMALY":"60.6416","SITE":"AFETR","COUNTRY_CODE":"US","INCLINATION":"53.2144","REV_AT_EPOCH":"130","DECAY_DATE":null,"PERIAPSIS":"348.216","MEAN_MOTION_DDOT":"0.0000000000000","OBJECT_TYPE":"PAYLOAD","TLE_LINE2":"2 52487  53.2144 189.5178 0002124  32.5259  60.6416 15.73240459  1308","EPOCH":"2022-05-21T22:00:00.999936","RA_OF_ASC_NODE":"189.5178"}];
